     3.02           N: GNSS NAV DATA    G: GPS              RINEX VERSION / TYPE
Spider v7.5.1.8670  SMO                 20210611 000827 UTC PGM / RUN BY / DATE
GPSA   5.5879D-09  1.4901D-08 -5.9605D-08 -1.1921D-07       IONOSPHERIC CORR
GPSB   8.3968D+04  9.8304D+04 -6.5536D+04 -5.2429D+05       IONOSPHERIC CORR
GPUT -9.3132257462D-10-1.065814104D-14 589824 2161          TIME SYSTEM CORR
    18    18  1929     7                                    LEAP SECONDS
                                                            END OF HEADER
G01 2021 06 10 00 00 00 6.633317098022D-04-1.170974428533D-11 0.000000000000D+00
     9.000000000000D+00-1.318437500000D+02 3.857660857420D-09-1.633313585244D+00
    -6.843358278275D-06 1.098599017132D-02 6.677582859993D-06 5.153685005188D+03
     3.456000000000D+05 2.272427082062D-07 2.595387911570D+00-7.823109626770D-08
     9.847322575483D-01 2.581250000000D+02 8.547756562199D-01-7.634604060058D-09
    -1.035757417334D-11 1.000000000000D+00 2.161000000000D+03 0.000000000000D+00
     2.000000000000D+00 0.000000000000D+00 5.122274160385D-09 9.000000000000D+00
     3.383400000000D+05                   
G02 2021 06 09 14 00 00-6.110346876085D-04-2.955857780762D-12 0.000000000000D+00
     4.400000000000D+01-1.153125000000D+02 4.423755584071D-09-3.196513453902D-01
    -6.055459380150D-06 2.018629468512D-02 7.092952728271D-06 5.153694063187D+03
     3.096000000000D+05-2.905726432800D-07 2.511596627772D+00 8.568167686462D-08
     9.633259449066D-01 2.487812500000D+02-1.514160876775D+00-8.379277716131D-09
    -2.050085379235D-10 1.000000000000D+00 2.161000000000D+03 0.000000000000D+00
     2.000000000000D+00 0.000000000000D+00-1.769512891769D-08 4.400000000000D+01
     3.023400000000D+05                   
G03 2021 06 10 00 00 00-1.875944435596D-04-1.057287590811D-11 0.000000000000D+00
     5.300000000000D+01-2.581250000000D+01 4.300893419185D-09-2.675420926638D+00
    -1.315027475357D-06 3.589719184674D-03 9.939074516296D-06 5.153583314896D+03
     3.456000000000D+05 1.192092895508D-07-2.650888596516D+00-1.136213541031D-07
     9.697355244399D-01 1.911250000000D+02 8.512922683343D-01-7.669962442947D-09
     5.435940586551D-10 1.000000000000D+00 2.161000000000D+03 0.000000000000D+00
     2.000000000000D+00 0.000000000000D+00 1.862645149231D-09 5.300000000000D+01
     3.383400000000D+05                   
G04 2021 06 10 00 00 00-1.993626356125D-04-1.250555214938D-12 0.000000000000D+00
     2.290000000000D+02 8.437500000000D-01 4.956635102360D-09-1.649402829963D-02
    -1.695007085800D-07 1.255713519640D-03 4.857778549194D-06 5.153725297928D+03
     3.456000000000D+05-2.048909664154D-08-1.570202507866D+00 0.000000000000D+00
     9.599676599234D-01 2.828437500000D+02-2.915456451938D+00-8.122124306453D-09
    -1.214336270428D-10 1.000000000000D+00 2.161000000000D+03 0.000000000000D+00
     2.000000000000D+00 0.000000000000D+00-4.190951585770D-09 2.290000000000D+02
     3.383400000000D+05                   
G05 2021 06 09 16 00 00-4.444923251867D-05-1.136868377216D-12 0.000000000000D+00
     9.000000000000D+01-2.071875000000D+01 4.390896979345D-09 3.138444745004D+00
    -1.065433025360D-06 6.130613619462D-03 9.890645742416D-06 5.153890039444D+03
     3.168000000000D+05 5.960464477539D-08-2.687680861862D+00-5.774199962616D-08
     9.567060255489D-01 1.862187500000D+02 9.032060931992D-01-7.693177650481D-09
     4.346609738803D-10 1.000000000000D+00 2.161000000000D+03 0.000000000000D+00
     2.000000000000D+00 0.000000000000D+00-1.117587089539D-08 9.000000000000D+01
     3.095400000000D+05                   
G06 2021 06 09 12 00 00 2.487609162927D-05 4.433786671143D-12 0.000000000000D+00
     4.100000000000D+01-1.147812500000D+02 3.727655073504D-09-1.437774581471D+00
    -6.007030606270D-06 2.155964961275D-03 7.843598723412D-06 5.153783962250D+03
     3.024000000000D+05 0.000000000000D+00 2.587471862886D+00 3.166496753693D-08
     9.841866183631D-01 2.418125000000D+02-9.651330583515D-01-7.718536032542D-09
    -2.035799029354D-10 1.000000000000D+00 2.161000000000D+03 0.000000000000D+00
     2.000000000000D+00 0.000000000000D+00 4.190951585770D-09 4.100000000000D+01
     2.951400000000D+05                   
G07 2021 06 10 00 00 00 1.741196028888D-04 9.890754881781D-12 0.000000000000D+00
     2.100000000000D+01-6.250000000000D-01 4.440185108479D-09-2.220355600597D+00
    -1.341104507446D-07 1.503916701768D-02 9.624287486076D-06 5.153756031036D+03
     3.456000000000D+05 6.519258022308D-08-5.484159266046D-01-1.471489667892D-07
     9.517180191042D-01 1.872812500000D+02-2.328385918459D+00-7.622817932429D-09
    -5.100212474574D-10 1.000000000000D+00 2.161000000000D+03 0.000000000000D+00
     2.000000000000D+00 0.000000000000D+00-1.117587089539D-08 2.100000000000D+01
     3.383400000000D+05                   
G08 2021 06 10 00 00 00-2.448121085763D-05-1.477928890381D-12 0.000000000000D+00
     7.500000000000D+01 1.815625000000D+01 4.541260700819D-09 6.237121533719D-01
     9.611248970032D-07 6.340644787997D-03 1.136213541031D-07 5.153609045029D+03
     3.456000000000D+05 9.126961231232D-08 1.519947774006D+00 9.126961231232D-08
     9.669764682570D-01 3.803125000000D+02 5.674711016777D-02-8.446066068757D-09
     1.178620534503D-10 1.000000000000D+00 2.161000000000D+03 0.000000000000D+00
     2.000000000000D+00 0.000000000000D+00 5.122274160385D-09 7.500000000000D+01
     3.383400000000D+05                   
G09 2021 06 10 00 00 00-3.502941690385D-04-1.932676241267D-12 0.000000000000D+00
     1.200000000000D+01 5.843750000000D+00 5.109855649721D-09 1.017991878556D+00
     1.229345798492D-07 1.852775225416D-03 4.909932613373D-06 5.153760042191D+03
     3.456000000000D+05-5.960464477539D-08-1.621172883695D+00-4.284083843231D-08
     9.528450965429D-01 2.801250000000D+02 1.832415248045D+00-8.207127422111D-09
    -1.107188993266D-11 1.000000000000D+00 2.161000000000D+03 0.000000000000D+00
     2.000000000000D+00 0.000000000000D+00 1.396983861923D-09 1.200000000000D+01
     3.383400000000D+05                   
G10 2021 06 09 20 00 00-1.390725374222D-04-7.617018127348D-12 0.000000000000D+00
     1.100000000000D+01-2.131250000000D+01 4.325180213982D-09 5.337269285546D-01
    -9.778887033463D-07 6.647206842899D-03 9.506940841675D-06 5.153674547195D+03
     3.312000000000D+05 4.284083843231D-08-2.653652575418D+00 4.097819328308D-08
     9.696039598283D-01 1.994062500000D+02-2.566118427418D+00-7.824612069385D-09
     3.325138497878D-10 1.000000000000D+00 2.161000000000D+03 0.000000000000D+00
     2.000000000000D+00 0.000000000000D+00 2.328306436539D-09 1.100000000000D+01
     3.239400000000D+05                   
G11 2020 11 10 20 00 00-1.123142428696D-04 1.057287590811D-11 0.000000000000D+00
     8.000000000000D+01 5.512500000000D+01 5.503800526441D-09 7.844506152654D-01
     2.687796950340D-06 1.562922308221D-02 9.331852197647D-06 5.153726993561D+03
     2.448000000000D+05 1.490116119385D-08-4.162866871200D-01-3.017485141754D-07
     9.140110964138D-01 1.751875000000D+02 2.066060783747D+00-8.848583199494D-09
     2.839403989707D-10 1.000000000000D+00 2.131000000000D+03 0.000000000000D+00
     2.000000000000D+00 1.000000000000D+00-1.257285475731D-08 8.000000000000D+01
     2.375400000000D+05 1.000000000000D+00
G12 2021 06 09 20 00 00-5.274685099721D-05-5.229594535194D-12 0.000000000000D+00
     7.100000000000D+01 1.357500000000D+02 4.043740009507D-09 1.198634106025D+00
     6.912276148796D-06 8.377680787817D-03 7.089227437973D-06 5.153733203888D+03
     3.312000000000D+05-1.285225152969D-07 5.618151092829D-01-2.048909664154D-08
     9.737547104608D-01 2.470312500000D+02 1.223057502877D+00-7.994976236603D-09
     2.567964174638D-10 1.000000000000D+00 2.161000000000D+03 0.000000000000D+00
     2.000000000000D+00 0.000000000000D+00-1.257285475731D-08 7.100000000000D+01
     3.239400000000D+05                   
G13 2021 06 09 16 00 00 1.427284441888D-04 4.888534022029D-12 0.000000000000D+00
     7.100000000000D+01-2.937500000000D+00 4.615192228385D-09 2.104618362580D+00
    -1.713633537292D-07 4.992232308723D-03 5.064532160759D-06 5.153670961380D+03
     3.168000000000D+05-2.980232238770D-08-1.472017662324D+00-1.229345798492D-07
     9.676116131590D-01 2.854375000000D+02 9.624354344875D-01-7.994261252975D-09
    -4.750197804548D-11 1.000000000000D+00 2.161000000000D+03 0.000000000000D+00
     2.000000000000D+00 0.000000000000D+00-1.117587089539D-08 7.100000000000D+01
     3.095400000000D+05                   
G14 2021 06 09 08 00 00 7.245223969221D-05-6.934897101019D-12 0.000000000000D+00
     4.000000000000D+00 1.240000000000D+02 4.573761813731D-09 1.435678625092D+00
     6.508082151413D-06 7.872033165768D-04 5.790963768959D-06 5.153758537292D+03
     2.880000000000D+05 4.470348358154D-08 5.348260174447D-01-2.607703208923D-08
     9.572370823667D-01 2.631250000000D+02 2.796818209333D+00-8.144267482635D-09
     3.643008811283D-11 1.000000000000D+00 2.161000000000D+03 0.000000000000D+00
     2.000000000000D+00 0.000000000000D+00-7.916241884232D-09 7.720000000000D+02
     2.807400000000D+05                   
G15 2021 06 09 17 59 44-1.435372978449D-04 2.614797267597D-12 0.000000000000D+00
     3.000000000000D+00 7.468750000000D+00 5.460227381349D-09 2.809952156186D+00
     2.719461917877D-07 1.319444156252D-02 4.701316356659D-06 5.153616748810D+03
     3.239840000000D+05 8.754432201385D-08-1.720464946099D+00-1.229345798492D-07
     9.285551426888D-01 2.700625000000D+02 9.876612258144D-01-8.207484469835D-09
     1.067901600482D-10 1.000000000000D+00 2.161000000000D+03 0.000000000000D+00
     2.000000000000D+00 0.000000000000D+00-1.071020960808D-08 3.000000000000D+00
     3.167100000000D+05                   
